{
    "links": {
        "self": "http://www.neowsapp.com/rest/v1/neo/3589139?api_key=iIulBulltgU6a56xZRHN4H3l9WmuAYTsLGpBGhQ2"
    },
    "id": "3589139",
    "neo_reference_id": "3589139",
    "name": "(2011 WG44)",
    "designation": "2011 WG44",
    "nasa_jpl_url": "http://ssd.jpl.nasa.gov/sbdb.cgi?sstr=3589139",
    "absolute_magnitude_h": 23.0,
    "estimated_diameter": {
        "kilometers": {
            "estimated_diameter_min": 0.0667659413,
            "estimated_diameter_max": 0.1492931834
        },
        "meters": {
            "estimated_diameter_min": 66.7659413495,
            "estimated_diameter_max": 149.2931834393
        },
        "miles": {
            "estimated_diameter_min": 0.0414864197,
            "estimated_diameter_max": 0.0927664547
        },
        "feet": {
            "estimated_diameter_min": 219.0483710172,
            "estimated_diameter_max": 489.807047955
        }
    },
    "is_potentially_hazardous_asteroid": false,
    "close_approach_data": [
        {
            "close_approach_date": "2011-11-25",
            "close_approach_date_full": "2011-Nov-25 16:11",
            "epoch_date_close_approach": 1322237460000,
            "relative_velocity": {
                "kilometers_per_second": "7.5948366436",
                "kilometers_per_hour": "27341.4119170765",
                "miles_per_hour": "16988.8900881412"
            },
            "miss_distance": {
                "astronomical": "0.2022225416",
                "lunar": "78.6645686824",
                "kilometers": "30252061.489346392",
                "miles": "18797759.3457965296"
            },
            "orbiting_body": "Earth"
        }
    ],
    "orbital_data": {
        "orbit_id": "10",
        "orbit_determination_date": "2017-04-06 08:51:53",
        "first_observation_date": "2011-11-26",
        "last_observation_date": "2011-12-19",
        "data_arc_in_days": 23,
        "observations_used": 43,
        "orbit_uncertainty": "8",
        "minimum_orbit_intersection": ".20055",
        "jupiter_tisserand_invariant": "4.670",
        "epoch_osculation": "2455896.5",
        "eccentricity": ".1651664082990613",
        "semi_major_axis": "1.416389804784016",
        "inclination": "14.53102049149982",
        "ascending_node_longitude": "236.81340161",
        "orbital_period": "615.7049071492203",
        "perihelion_distance": "1.182449787976432",
        "perihelion_argument": "197.7276554084171",
        "aphelion_distance": "1.650329821591601",
        "perihelion_time": "2455903.647018255808",
        "mean_anomaly": "355.8211692935764",
        "mean_motion": ".5846956810314191",
        "equinox": "J2000",
        "orbit_class": {
            "orbit_class_type": "AMO",
            "orbit_class_description": "Near-Earth asteroid orbits similar to that of 1221 Amor",
            "orbit_class_range": "1.017 AU < q (perihelion) < 1.3 AU"
        }
    },
    "is_sentry_object": false
}